IRIDIUM 171             
1 43929U 19002H   25179.43494107  .00000057  00000+0  13356-4 0  9998
2 43929  86.3998 141.7288 0002003  81.3813 278.7610 14.34217898338251
IRIDIUM 170             
1 43930U 19002J   25179.59715819  .00000562  00000+0  85252-4 0  9998
2 43930  86.6114 141.4131 0002716  79.6190 280.5333 14.72258734347236
IRIDIUM 167             
1 43931U 19002K   25179.42859892  .00000023  00000+0  12203-5 0  9990
2 43931  86.3989 141.4838 0002144  74.4208 285.7224 14.34217640338253
IRIDIUM 181             
1 56726U 23068S   25179.59588575  .00000204  00000+0  54474-4 0  9994
2 56726  86.4520 204.4703 0001768  94.2896 265.8507 14.43310933111437
IRIDIUM 177             
1 56727U 23068T   25179.42816912  .00000481  00000+0  59728-4 0  9990
2 56727  86.1985 136.7950 0002404  85.0992 275.0504 14.80230202114034
IRIDIUM 174             
1 56728U 23068U   25179.38089869  .00000502  00000+0  75728-4 0  9991
2 56728  86.6120 141.6146 0002995  92.4523 267.7037 14.72256219113967
IRIDIUM 178             
1 56729U 23068V   25179.48487174  .00000328  00000+0  39691-4 0  9999
2 56729  86.6570 173.1191 0002703  91.1736 268.9795 14.80233453114044
IRIDIUM 179             
1 56730U 23068W   25179.47949391  .00000314  00000+0  37852-4 0  9996
2 56730  86.6810 181.0251 0002627  88.2381 271.9142 14.80234347114049
